{"fetched_at":"2026-07-14T06:34:47.836Z","source":"https://celestrak.org/NORAD/elements/gp.php?NAME=HULIANWANG&FORMAT=JSON","constellation":"guowang","records":[{"OBJECT_NAME":"HULIANWANG JISHU SHIYAN A","OBJECT_ID":"2023-095A","EPOCH":"2026-07-13T20:21:32.315616","CLASSIFICATION_TYPE":"U","MEAN_MOTION":13.39544273,"ECCENTRICITY":0.0019432,"INCLINATION":86.5042,"RA_OF_ASC_NODE":355.5445,"ARG_OF_PERICENTER":114.5809,"MEAN_ANOMALY":245.7361,"EPHEMERIS_TYPE":0,"NORAD_CAT_ID":57288,"ELEMENT_SET_NO":999,"REV_AT_EPOCH":14732,"BSTAR":0.000012281,"MEAN_MOTION_DOT":2.2e-7,"MEAN_MOTION_DDOT":0},{"OBJECT_NAME":"HULIANWANG JISHU SHIYAN B","OBJECT_ID":"2023-095B","EPOCH":"2026-07-13T20:09:18.311328","CLASSIFICATION_TYPE":"U","MEAN_MOTION":13.39552954,"ECCENTRICITY":0.0018032,"INCLINATION":86.5044,"RA_OF_ASC_NODE":355.5568,"ARG_OF_PERICENTER":112.6363,"MEAN_ANOMALY":247.6689,"EPHEMERIS_TYPE":0,"NORAD_CAT_ID":57289,"ELEMENT_SET_NO":999,"REV_AT_EPOCH":14732,"BSTAR":0.000023151,"MEAN_MOTION_DOT":2.8e-7,"MEAN_MOTION_DDOT":0},{"OBJECT_NAME":"HULIANWANG JISHU SHIYAN 4A","OBJECT_ID":"2023-212A","EPOCH":"2026-07-13T19:45:00.910080","CLASSIFICATION_TYPE":"U","MEAN_MOTION":13.41458911,"ECCENTRICITY":0.0001234,"INCLINATION":49.9992,"RA_OF_ASC_NODE":246.1573,"ARG_OF_PERICENTER":214.4094,"MEAN_ANOMALY":145.6704,"EPHEMERIS_TYPE":0,"NORAD_CAT_ID":58691,"ELEMENT_SET_NO":999,"REV_AT_EPOCH":12482,"BSTAR":0.000068244,"MEAN_MOTION_DOT":-9e-7,"MEAN_MOTION_DDOT":0},{"OBJECT_NAME":"HULIANWANG JISHU SHIYAN 4B","OBJECT_ID":"2023-212B","EPOCH":"2026-07-13T19:35:21.211872","CLASSIFICATION_TYPE":"U","MEAN_MOTION":13.41460066,"ECCENTRICITY":0.0001397,"INCLINATION":49.9961,"RA_OF_ASC_NODE":246.5398,"ARG_OF_PERICENTER":204.1858,"MEAN_ANOMALY":155.8954,"EPHEMERIS_TYPE":0,"NORAD_CAT_ID":58692,"ELEMENT_SET_NO":999,"REV_AT_EPOCH":12482,"BSTAR":0.000070772,"MEAN_MOTION_DOT":-8.9e-7,"MEAN_MOTION_DDOT":0},{"OBJECT_NAME":"HULIANWANG JISHU SHIYAN 4C","OBJECT_ID":"2023-212C","EPOCH":"2026-07-13T19:40:01.780320","CLASSIFICATION_TYPE":"U","MEAN_MOTION":13.41461877,"ECCENTRICITY":0.0001252,"INCLINATION":49.9975,"RA_OF_ASC_NODE":246.6547,"ARG_OF_PERICENTER":193.2785,"MEAN_ANOMALY":166.8059,"EPHEMERIS_TYPE":0,"NORAD_CAT_ID":58693,"ELEMENT_SET_NO":999,"REV_AT_EPOCH":12483,"BSTAR":0.000075742,"MEAN_MOTION_DOT":-8.6e-7,"MEAN_MOTION_DDOT":0},{"OBJECT_NAME":"HULIANWANG DIGUI-01","OBJECT_ID":"2024-240A","EPOCH":"2026-07-13T19:37:50.302848","CLASSIFICATION_TYPE":"U","MEAN_MOTION":13.2441155,"ECCENTRICITY":0.0001941,"INCLINATION":86.5018,"RA_OF_ASC_NODE":334.2532,"ARG_OF_PERICENTER":105.7174,"MEAN_ANOMALY":254.4174,"EPHEMERIS_TYPE":0,"NORAD_CAT_ID":62323,"ELEMENT_SET_NO":999,"REV_AT_EPOCH":7616,"BSTAR":-0.0000088862,"MEAN_MOTION_DOT":1.1e-7,"MEAN_MOTION_DDOT":0},{"OBJECT_NAME":"HULIANWANG DIGUI-02","OBJECT_ID":"2024-240B","EPOCH":"2026-07-13T19:48:34.881408","CLASSIFICATION_TYPE":"U","MEAN_MOTION":13.24411489,"ECCENTRICITY":0.000191,"INCLINATION":86.5047,"RA_OF_ASC_NODE":334.4174,"ARG_OF_PERICENTER":105.8817,"MEAN_ANOMALY":254.2527,"EPHEMERIS_TYPE":0,"NORAD_CAT_ID":62324,"ELEMENT_SET_NO":999,"REV_AT_EPOCH":7617,"BSTAR":-0.00003901,"MEAN_MOTION_DOT":-2e-8,"MEAN_MOTION_DDOT":0},{"OBJECT_NAME":"HULIANWANG DIGUI-03","OBJECT_ID":"2024-240C","EPOCH":"2026-07-13T19:26:55.726944","CLASSIFICATION_TYPE":"U","MEAN_MOTION":13.24410111,"ECCENTRICITY":0.0001985,"INCLINATION":86.5,"RA_OF_ASC_NODE":334.1534,"ARG_OF_PERICENTER":104.1023,"MEAN_ANOMALY":256.0331,"EPHEMERIS_TYPE":0,"NORAD_CAT_ID":62325,"ELEMENT_SET_NO":999,"REV_AT_EPOCH":7616,"BSTAR":0.000017224,"MEAN_MOTION_DOT":2.2e-7,"MEAN_MOTION_DDOT":0},{"OBJECT_NAME":"HULIANWANG DIGUI-04","OBJECT_ID":"2024-240D","EPOCH":"2026-07-13T21:04:51.904128","CLASSIFICATION_TYPE":"U","MEAN_MOTION":13.2441039,"ECCENTRICITY":0.0002109,"INCLINATION":86.5009,"RA_OF_ASC_NODE":334.1738,"ARG_OF_PERICENTER":104.2851,"MEAN_ANOMALY":255.8517,"EPHEMERIS_TYPE":0,"NORAD_CAT_ID":62326,"ELEMENT_SET_NO":999,"REV_AT_EPOCH":7617,"BSTAR":0.000044676,"MEAN_MOTION_DOT":3.4e-7,"MEAN_MOTION_DDOT":0},{"OBJECT_NAME":"HULIANWANG DIGUI-05","OBJECT_ID":"2024-240E","EPOCH":"2026-07-13T20:53:59.406144","CLASSIFICATION_TYPE":"U","MEAN_MOTION":13.24411012,"ECCENTRICITY":0.0002165,"INCLINATION":86.5061,"RA_OF_ASC_NODE":334.4615,"ARG_OF_PERICENTER":102.3144,"MEAN_ANOMALY":257.8232,"EPHEMERIS_TYPE":0,"NORAD_CAT_ID":62327,"ELEMENT_SET_NO":999,"REV_AT_EPOCH":7617,"BSTAR":0.000036374,"MEAN_MOTION_DOT":3e-7,"MEAN_MOTION_DDOT":0},{"OBJECT_NAME":"HULIANWANG DIGUI-06","OBJECT_ID":"2024-240F","EPOCH":"2026-07-13T20:32:13.712064","CLASSIFICATION_TYPE":"U","MEAN_MOTION":13.24408509,"ECCENTRICITY":0.0002078,"INCLINATION":86.4999,"RA_OF_ASC_NODE":334.107,"ARG_OF_PERICENTER":108.8673,"MEAN_ANOMALY":251.2686,"EPHEMERIS_TYPE":0,"NORAD_CAT_ID":62328,"ELEMENT_SET_NO":999,"REV_AT_EPOCH":7617,"BSTAR":-0.000002522,"MEAN_MOTION_DOT":1.4e-7,"MEAN_MOTION_DDOT":0},{"OBJECT_NAME":"HULIANWANG DIGUI-07","OBJECT_ID":"2024-240G","EPOCH":"2026-07-13T20:21:19.974240","CLASSIFICATION_TYPE":"U","MEAN_MOTION":13.24410976,"ECCENTRICITY":0.0001991,"INCLINATION":86.4969,"RA_OF_ASC_NODE":333.9405,"ARG_OF_PERICENTER":106.3395,"MEAN_ANOMALY":253.7958,"EPHEMERIS_TYPE":0,"NORAD_CAT_ID":62329,"ELEMENT_SET_NO":999,"REV_AT_EPOCH":7617,"BSTAR":-0.000022234,"MEAN_MOTION_DOT":5e-8,"MEAN_MOTION_DDOT":0},{"OBJECT_NAME":"HULIANWANG DIGUI-08","OBJECT_ID":"2024-240H","EPOCH":"2026-07-13T20:43:06.496896","CLASSIFICATION_TYPE":"U","MEAN_MOTION":13.24411271,"ECCENTRICITY":0.0002228,"INCLINATION":86.5053,"RA_OF_ASC_NODE":334.4107,"ARG_OF_PERICENTER":102.4431,"MEAN_ANOMALY":257.6953,"EPHEMERIS_TYPE":0,"NORAD_CAT_ID":62330,"ELEMENT_SET_NO":999,"REV_AT_EPOCH":7617,"BSTAR":0.000014098,"MEAN_MOTION_DOT":2.1e-7,"MEAN_MOTION_DDOT":0},{"OBJECT_NAME":"HULIANWANG DIGUI-09","OBJECT_ID":"2024-240J","EPOCH":"2026-07-13T20:10:27.384672","CLASSIFICATION_TYPE":"U","MEAN_MOTION":13.24409949,"ECCENTRICITY":0.0001965,"INCLINATION":86.5019,"RA_OF_ASC_NODE":334.2706,"ARG_OF_PERICENTER":104.2346,"MEAN_ANOMALY":255.9006,"EPHEMERIS_TYPE":0,"NORAD_CAT_ID":62331,"ELEMENT_SET_NO":999,"REV_AT_EPOCH":7616,"BSTAR":-0.000046562,"MEAN_MOTION_DOT":-5e-8,"MEAN_MOTION_DDOT":0},{"OBJECT_NAME":"HULIANWANG DIGUI-10","OBJECT_ID":"2024-240K","EPOCH":"2026-07-13T19:59:35.101824","CLASSIFICATION_TYPE":"U","MEAN_MOTION":13.24410766,"ECCENTRICITY":0.0002036,"INCLINATION":86.5049,"RA_OF_ASC_NODE":334.4338,"ARG_OF_PERICENTER":107.2337,"MEAN_ANOMALY":252.9019,"EPHEMERIS_TYPE":0,"NORAD_CAT_ID":62332,"ELEMENT_SET_NO":999,"REV_AT_EPOCH":7616,"BSTAR":-0.000045867,"MEAN_MOTION_DOT":-5e-8,"MEAN_MOTION_DDOT":0},{"OBJECT_NAME":"HULIANWANG DIGUI-11","OBJECT_ID":"2025-030A","EPOCH":"2026-07-13T20:22:28.667424","CLASSIFICATION_TYPE":"U","MEAN_MOTION":13.29324401,"ECCENTRICITY":0.0001023,"INCLINATION":49.9998,"RA_OF_ASC_NODE":140.1921,"ARG_OF_PERICENTER":268.8328,"MEAN_ANOMALY":91.2427,"EPHEMERIS_TYPE":0,"NORAD_CAT_ID":62971,"ELEMENT_SET_NO":999,"REV_AT_EPOCH":6940,"BSTAR":0.0000049783,"MEAN_MOTION_DOT":-0.00000122,"MEAN_MOTION_DDOT":0}]}
