HULIANWANG JISHU SHIYAN*
1 57288U 23095A   26194.84829069  .00000022  00000+0  12281-4 0  9998
2 57288  86.5042 355.5445 0019432 114.5809 245.7361 13.39544273147321
HULIANWANG JISHU SHIYAN*
1 57289U 23095B   26194.83979527  .00000028  00000+0  23151-4 0  9997
2 57289  86.5044 355.5568 0018032 112.6363 247.6689 13.39552954147328
HULIANWANG JISHU SHIYAN*
1 58691U 23212A   26194.82292720 -.00000090  00000+0  68244-4 0  9990
2 58691  49.9992 246.1573 0001234 214.4094 145.6704 13.41458911124826
HULIANWANG JISHU SHIYAN*
1 58692U 23212B   26194.81621773 -.00000089  00000+0  70772-4 0  9991
2 58692  49.9961 246.5398 0001397 204.1858 155.8954 13.41460066124820
HULIANWANG JISHU SHIYAN*
1 58693U 23212C   26194.81946505 -.00000086  00000+0  75742-4 0  9994
2 58693  49.9975 246.6547 0001252 193.2785 166.8059 13.41461877124830
HULIANWANG DIGUI-01     
1 62323U 24240A   26194.81794332  .00000011  00000+0 -88862-5 0  9996
2 62323  86.5018 334.2532 0001941 105.7174 254.4174 13.24411550 76161
HULIANWANG DIGUI-02     
1 62324U 24240B   26194.82540372 -.00000002  00000+0 -39010-4 0  9992
2 62324  86.5047 334.4174 0001910 105.8817 254.2527 13.24411489 76171
HULIANWANG DIGUI-03     
1 62325U 24240C   26194.81036721  .00000022  00000+0  17224-4 0  9993
2 62325  86.5000 334.1534 0001985 104.1023 256.0331 13.24410111 76164
HULIANWANG DIGUI-04     
1 62326U 24240D   26194.87837852  .00000034  00000+0  44676-4 0  9998
2 62326  86.5009 334.1738 0002109 104.2851 255.8517 13.24410390 76172
HULIANWANG DIGUI-05     
1 62327U 24240E   26194.87082646  .00000030  00000+0  36374-4 0  9994
2 62327  86.5061 334.4615 0002165 102.3144 257.8232 13.24411012 76172
HULIANWANG DIGUI-06     
1 62328U 24240F   26194.85571426  .00000014  00000+0 -25220-5 0  9994
2 62328  86.4999 334.1070 0002078 108.8673 251.2686 13.24408509 76173
HULIANWANG DIGUI-07     
1 62329U 24240G   26194.84814785  .00000005  00000+0 -22234-4 0  9993
2 62329  86.4969 333.9405 0001991 106.3395 253.7958 13.24410976 76177
HULIANWANG DIGUI-08     
1 62330U 24240H   26194.86326964  .00000021  00000+0  14098-4 0  9990
2 62330  86.5053 334.4107 0002228 102.4431 257.6953 13.24411271 76178
HULIANWANG DIGUI-09     
1 62331U 24240J   26194.84059473 -.00000005  00000+0 -46562-4 0  9992
2 62331  86.5019 334.2706 0001965 104.2346 255.9006 13.24409949 76164
HULIANWANG DIGUI-10     
1 62332U 24240K   26194.83304516 -.00000005  00000+0 -45867-4 0  9990
2 62332  86.5049 334.4338 0002036 107.2337 252.9019 13.24410766 76164
HULIANWANG DIGUI-11     
1 62971U 25030A   26194.84894291 -.00000122  00000+0  49783-5 0  9993
2 62971  49.9998 140.1921 0001023 268.8328  91.2427 13.29324401 69409
